IRIDIUM 26              
1 24903U 97043A   25207.17661610  .00000382  00000+0  12193-3 0  9996
2 24903  86.3938  94.2431 0002028  81.2968 278.8459 14.37169155462812
IRIDIUM 22              
1 24907U 97043E   25207.20838025  .00000328  00000+0  10618-3 0  9990
2 24907  86.3946  97.8043 0002067  86.6023 273.5410 14.35978483462366
DUMMY MASS 1            
1 24925U 97048A   25207.17862400  .00000425  00000+0  44317-4 0  9997
2 24925  86.3359 117.3069 0007416  27.2525 332.9088 14.87012092511167
DUMMY MASS 2            
1 24926U 97048B   25207.21457611  .00000420  00000+0  43990-4 0  9998
2 24926  86.3361 118.9047 0008597  35.5478 324.6317 14.86763959510946
IRIDIUM 29              
1 24944U 97051A   25207.21741395  .00000411  00000+0  13337-3 0  9998
2 24944  86.3982 127.5344 0002309  89.8729 270.2733 14.36493295459091
IRIDIUM 33              
1 24946U 97051C   25207.52103093  .00000320  00000+0  10555-3 0  9999
2 24946  86.3897 126.6708 0006481 324.1515  35.9245 14.34912618458394
IRIDIUM 28              
1 24948U 97051E   25207.30555345  .00000338  00000+0  10646-3 0  9998
2 24948  86.3984 124.9912 0001940  73.0676 287.0735 14.37407954459530
IRIDIUM 36              
1 24967U 97056C   25207.40199220  .00000382  00000+0  12071-3 0  9994
2 24967  86.4014 156.5377 0002002  87.6810 272.4617 14.37634277457853
